[{"OBJECT_NAME":"STARLINK-5933","OBJECT_ID":"2023-037AZ","EPOCH":"2026-03-09T22:41:03.525216","MEAN_MOTION":14.98330477,"ECCENTRICITY":0.00027263,"INCLINATION":69.998,"RA_OF_ASC_NODE":263.7225,"ARG_OF_PERICENTER":270.5332,"MEAN_ANOMALY":89.5515,"EPHEMERIS_TYPE":0,"CLASSIFICATION_TYPE":"U","NORAD_CAT_ID":55961,"ELEMENT_SET_NO":999,"REV_AT_EPOCH":16451,"BSTAR":1.9695852e-5,"MEAN_MOTION_DOT":1.42e-6,"MEAN_MOTION_DDOT":0},{"OBJECT_NAME":"SITRO-AIS 23","OBJECT_ID":"2024-199H","EPOCH":"2026-03-09T22:39:00.533088","MEAN_MOTION":14.95417613,"ECCENTRICITY":0.001348,"INCLINATION":97.3327,"RA_OF_ASC_NODE":273.3902,"ARG_OF_PERICENTER":42.7028,"MEAN_ANOMALY":317.5239,"EPHEMERIS_TYPE":0,"CLASSIFICATION_TYPE":"U","NORAD_CAT_ID":61742,"ELEMENT_SET_NO":999,"REV_AT_EPOCH":11693,"BSTAR":0.00028445892,"MEAN_MOTION_DOT":3.096e-5,"MEAN_MOTION_DDOT":0}]
